ISS (ZARYA)             
1 25544U 98067A   26079.87218435  .00009590  00000+0  18573-3 0  9991
2 25544  51.6346  17.0785 0006366 213.2716 146.7873 15.48402839558062
POISK                   
1 36086U 09060A   26079.87218435  .00009590  00000+0  18573-3 0  9999
2 36086  51.6346  17.0785 0006366 213.2716 146.7873 15.48402839557435
CSS (TIANHE)            
1 48274U 21035A   26079.59211288  .00017890  00000+0  20859-3 0  9997
2 48274  41.4664 141.7960 0005637 341.7172  18.3464 15.61215573279310
ISS (NAUKA)             
1 49044U 21066A   26079.87218435  .00009590  00000+0  18573-3 0  9997
2 49044  51.6346  17.0785 0006366 213.2716 146.7873 15.48402839557477
FREGAT DEB              
1 49271U 11037PF  26079.88461840  .00012755  00000+0  18036-1 0  9996
2 49271  51.6494 267.1474 0963863  85.0335 285.9693 12.40531693214085
CSS (WENTIAN)           
1 53239U 22085A   26079.59211288  .00017890  00000+0  20859-3 0  9990
2 53239  41.4664 141.7960 0005637 341.7172  18.3464 15.61215573279104
CSS (MENGTIAN)          
1 54216U 22143A   26079.59211288  .00017890  00000+0  20859-3 0  9991
2 54216  41.4664 141.7960 0005637 341.7172  18.3464 15.61215573279100
TIANZHOU-9              
1 64786U 25149A   26079.59211288  .00017890  00000+0  20859-3 0  9993
2 64786  41.4664 141.7960 0005637 341.7172  18.3464 15.61215573279103
PROGRESS-MS 32          
1 65586U 25204A   26079.87218435  .00009590  00000+0  18573-3 0  9994
2 65586  51.6346  17.0785 0006366 213.2716 146.7873 15.48402839554507
YOTSUBA-KULOVER         
1 65941U 98067XN  26079.94071627  .00265113  00000+0  10305-2 0  9993
2 65941  51.6208 358.7010 0005024 152.4700 207.6571 15.85843051 25288
BOTAN                   
1 65943U 98067XQ  26079.94838507  .00249483  00000+0  99829-3 0  9994
2 65943  51.6238 358.7739 0005699 153.2418 206.8880 15.85278660 25286
HRC MONOBLOCK CAMERA    
1 66052U 98067XR  26079.50700654  .00041869  00000+0  45024-3 0  9995
2 66052  51.6296  10.8896 0003870 142.6228 217.5036 15.63304231 24081
