CCSDS_OMM_VERS = 2.0
CREATION_DATE  = 
ORIGINATOR     = 

OBJECT_NAME    = ISS (ZARYA)
OBJECT_ID      = 1998-067A
CENTER_NAME    = EARTH
REF_FRAME      = TEME
TIME_SYSTEM    = UTC
MEAN_ELEMENT_THEORY = SGP/SGP4

EPOCH          = 2026-03-20T20:55:56.727840
MEAN_MOTION    = 15.48402839
ECCENTRICITY   = .00063663
INCLINATION    = 51.6346
RA_OF_ASC_NODE = 17.0785
ARG_OF_PERICENTER = 213.2716
MEAN_ANOMALY   = 146.7873

EPHEMERIS_TYPE = 0
CLASSIFICATION_TYPE = U
NORAD_CAT_ID   = 25544
ELEMENT_SET_NO = 999
REV_AT_EPOCH   = 55806
BSTAR          = .18572808E-3
MEAN_MOTION_DOT = .959E-4
MEAN_MOTION_DDOT = 0

CCSDS_OMM_VERS = 2.0
CREATION_DATE  = 
ORIGINATOR     = 

OBJECT_NAME    = POISK
OBJECT_ID      = 2009-060A
CENTER_NAME    = EARTH
REF_FRAME      = TEME
TIME_SYSTEM    = UTC
MEAN_ELEMENT_THEORY = SGP/SGP4

EPOCH          = 2026-03-20T20:55:56.727840
MEAN_MOTION    = 15.48402839
ECCENTRICITY   = .00063663
INCLINATION    = 51.6346
RA_OF_ASC_NODE = 17.0785
ARG_OF_PERICENTER = 213.2716
MEAN_ANOMALY   = 146.7873

EPHEMERIS_TYPE = 0
CLASSIFICATION_TYPE = U
NORAD_CAT_ID   = 36086
ELEMENT_SET_NO = 999
REV_AT_EPOCH   = 55743
BSTAR          = .18572808E-3
MEAN_MOTION_DOT = .959E-4
MEAN_MOTION_DDOT = 0

CCSDS_OMM_VERS = 2.0
CREATION_DATE  = 
ORIGINATOR     = 

OBJECT_NAME    = CSS (TIANHE)
OBJECT_ID      = 2021-035A
CENTER_NAME    = EARTH
REF_FRAME      = TEME
TIME_SYSTEM    = UTC
MEAN_ELEMENT_THEORY = SGP/SGP4

EPOCH          = 2026-03-20T14:12:38.552832
MEAN_MOTION    = 15.61215573
ECCENTRICITY   = .00056376
INCLINATION    = 41.4664
RA_OF_ASC_NODE = 141.7960
ARG_OF_PERICENTER = 341.7172
MEAN_ANOMALY   = 18.3464

EPHEMERIS_TYPE = 0
CLASSIFICATION_TYPE = U
NORAD_CAT_ID   = 48274
ELEMENT_SET_NO = 999
REV_AT_EPOCH   = 27931
BSTAR          = .20859272E-3
MEAN_MOTION_DOT = .1789E-3
MEAN_MOTION_DDOT = 0

CCSDS_OMM_VERS = 2.0
CREATION_DATE  = 
ORIGINATOR     = 

OBJECT_NAME    = ISS (NAUKA)
OBJECT_ID      = 2021-066A
CENTER_NAME    = EARTH
REF_FRAME      = TEME
TIME_SYSTEM    = UTC
MEAN_ELEMENT_THEORY = SGP/SGP4

EPOCH          = 2026-03-20T20:55:56.727840
MEAN_MOTION    = 15.48402839
ECCENTRICITY   = .00063663
INCLINATION    = 51.6346
RA_OF_ASC_NODE = 17.0785
ARG_OF_PERICENTER = 213.2716
MEAN_ANOMALY   = 146.7873

EPHEMERIS_TYPE = 0
CLASSIFICATION_TYPE = U
NORAD_CAT_ID   = 49044
ELEMENT_SET_NO = 999
REV_AT_EPOCH   = 55747
BSTAR          = .18572808E-3
MEAN_MOTION_DOT = .959E-4
MEAN_MOTION_DDOT = 0

CCSDS_OMM_VERS = 2.0
CREATION_DATE  = 
ORIGINATOR     = 

OBJECT_NAME    = FREGAT DEB
OBJECT_ID      = 2011-037PF
CENTER_NAME    = EARTH
REF_FRAME      = TEME
TIME_SYSTEM    = UTC
MEAN_ELEMENT_THEORY = SGP/SGP4

EPOCH          = 2026-03-20T21:13:51.029760
MEAN_MOTION    = 12.40531693
ECCENTRICITY   = .09638631
INCLINATION    = 51.6494
RA_OF_ASC_NODE = 267.1474
ARG_OF_PERICENTER = 85.0335
MEAN_ANOMALY   = 285.9693

EPHEMERIS_TYPE = 0
CLASSIFICATION_TYPE = U
NORAD_CAT_ID   = 49271
ELEMENT_SET_NO = 999
REV_AT_EPOCH   = 21408
BSTAR          = .18036062E-1
MEAN_MOTION_DOT = .12755E-3
MEAN_MOTION_DDOT = 0

CCSDS_OMM_VERS = 2.0
CREATION_DATE  = 
ORIGINATOR     = 

OBJECT_NAME    = CSS (WENTIAN)
OBJECT_ID      = 2022-085A
CENTER_NAME    = EARTH
REF_FRAME      = TEME
TIME_SYSTEM    = UTC
MEAN_ELEMENT_THEORY = SGP/SGP4

EPOCH          = 2026-03-20T14:12:38.552832
MEAN_MOTION    = 15.61215573
ECCENTRICITY   = .00056376
INCLINATION    = 41.4664
RA_OF_ASC_NODE = 141.7960
ARG_OF_PERICENTER = 341.7172
MEAN_ANOMALY   = 18.3464

EPHEMERIS_TYPE = 0
CLASSIFICATION_TYPE = U
NORAD_CAT_ID   = 53239
ELEMENT_SET_NO = 999
REV_AT_EPOCH   = 27910
BSTAR          = .20859272E-3
MEAN_MOTION_DOT = .1789E-3
MEAN_MOTION_DDOT = 0

CCSDS_OMM_VERS = 2.0
CREATION_DATE  = 
ORIGINATOR     = 

OBJECT_NAME    = CSS (MENGTIAN)
OBJECT_ID      = 2022-143A
CENTER_NAME    = EARTH
REF_FRAME      = TEME
TIME_SYSTEM    = UTC
MEAN_ELEMENT_THEORY = SGP/SGP4

EPOCH          = 2026-03-20T14:12:38.552832
MEAN_MOTION    = 15.61215573
ECCENTRICITY   = .00056376
INCLINATION    = 41.4664
RA_OF_ASC_NODE = 141.7960
ARG_OF_PERICENTER = 341.7172
MEAN_ANOMALY   = 18.3464

EPHEMERIS_TYPE = 0
CLASSIFICATION_TYPE = U
NORAD_CAT_ID   = 54216
ELEMENT_SET_NO = 999
REV_AT_EPOCH   = 27910
BSTAR          = .20859272E-3
MEAN_MOTION_DOT = .1789E-3
MEAN_MOTION_DDOT = 0

CCSDS_OMM_VERS = 2.0
CREATION_DATE  = 
ORIGINATOR     = 

OBJECT_NAME    = TIANZHOU-9
OBJECT_ID      = 2025-149A
CENTER_NAME    = EARTH
REF_FRAME      = TEME
TIME_SYSTEM    = UTC
MEAN_ELEMENT_THEORY = SGP/SGP4

EPOCH          = 2026-03-20T14:12:38.552832
MEAN_MOTION    = 15.61215573
ECCENTRICITY   = .00056376
INCLINATION    = 41.4664
RA_OF_ASC_NODE = 141.7960
ARG_OF_PERICENTER = 341.7172
MEAN_ANOMALY   = 18.3464

EPHEMERIS_TYPE = 0
CLASSIFICATION_TYPE = U
NORAD_CAT_ID   = 64786
ELEMENT_SET_NO = 999
REV_AT_EPOCH   = 27910
BSTAR          = .20859272E-3
MEAN_MOTION_DOT = .1789E-3
MEAN_MOTION_DDOT = 0

CCSDS_OMM_VERS = 2.0
CREATION_DATE  = 
ORIGINATOR     = 

OBJECT_NAME    = PROGRESS-MS 32
OBJECT_ID      = 2025-204A
CENTER_NAME    = EARTH
REF_FRAME      = TEME
TIME_SYSTEM    = UTC
MEAN_ELEMENT_THEORY = SGP/SGP4

EPOCH          = 2026-03-20T20:55:56.727840
MEAN_MOTION    = 15.48402839
ECCENTRICITY   = .00063663
INCLINATION    = 51.6346
RA_OF_ASC_NODE = 17.0785
ARG_OF_PERICENTER = 213.2716
MEAN_ANOMALY   = 146.7873

EPHEMERIS_TYPE = 0
CLASSIFICATION_TYPE = U
NORAD_CAT_ID   = 65586
ELEMENT_SET_NO = 999
REV_AT_EPOCH   = 55450
BSTAR          = .18572808E-3
MEAN_MOTION_DOT = .959E-4
MEAN_MOTION_DDOT = 0

CCSDS_OMM_VERS = 2.0
CREATION_DATE  = 
ORIGINATOR     = 

OBJECT_NAME    = YOTSUBA-KULOVER
OBJECT_ID      = 1998-067XN
CENTER_NAME    = EARTH
REF_FRAME      = TEME
TIME_SYSTEM    = UTC
MEAN_ELEMENT_THEORY = SGP/SGP4

EPOCH          = 2026-03-20T22:34:37.885728
MEAN_MOTION    = 15.85843051
ECCENTRICITY   = .00050248
INCLINATION    = 51.6208
RA_OF_ASC_NODE = 358.7010
ARG_OF_PERICENTER = 152.4700
MEAN_ANOMALY   = 207.6571

EPHEMERIS_TYPE = 0
CLASSIFICATION_TYPE = U
NORAD_CAT_ID   = 65941
ELEMENT_SET_NO = 999
REV_AT_EPOCH   = 2528
BSTAR          = .10305328E-2
MEAN_MOTION_DOT = .265113E-2
MEAN_MOTION_DDOT = 0

CCSDS_OMM_VERS = 2.0
CREATION_DATE  = 
ORIGINATOR     = 

OBJECT_NAME    = BOTAN
OBJECT_ID      = 1998-067XQ
CENTER_NAME    = EARTH
REF_FRAME      = TEME
TIME_SYSTEM    = UTC
MEAN_ELEMENT_THEORY = SGP/SGP4

EPOCH          = 2026-03-20T22:45:40.470048
MEAN_MOTION    = 15.85278660
ECCENTRICITY   = .00056993
INCLINATION    = 51.6238
RA_OF_ASC_NODE = 358.7739
ARG_OF_PERICENTER = 153.2418
MEAN_ANOMALY   = 206.8880

EPHEMERIS_TYPE = 0
CLASSIFICATION_TYPE = U
NORAD_CAT_ID   = 65943
ELEMENT_SET_NO = 999
REV_AT_EPOCH   = 2528
BSTAR          = .99829414E-3
MEAN_MOTION_DOT = .249483E-2
MEAN_MOTION_DDOT = 0

CCSDS_OMM_VERS = 2.0
CREATION_DATE  = 
ORIGINATOR     = 

OBJECT_NAME    = HRC MONOBLOCK CAMERA
OBJECT_ID      = 1998-067XR
CENTER_NAME    = EARTH
REF_FRAME      = TEME
TIME_SYSTEM    = UTC
MEAN_ELEMENT_THEORY = SGP/SGP4

EPOCH          = 2026-03-20T12:10:05.365056
MEAN_MOTION    = 15.63304231
ECCENTRICITY   = .00038707
INCLINATION    = 51.6296
RA_OF_ASC_NODE = 10.8896
ARG_OF_PERICENTER = 142.6228
MEAN_ANOMALY   = 217.5036

EPHEMERIS_TYPE = 0
CLASSIFICATION_TYPE = U
NORAD_CAT_ID   = 66052
ELEMENT_SET_NO = 999
REV_AT_EPOCH   = 2408
BSTAR          = .45023736E-3
MEAN_MOTION_DOT = .41869E-3
MEAN_MOTION_DDOT = 0

